$$SOE
2459580.500000000, A.D. 2022-Jan-01 00:00:00.0000, 1.277554320079094E+08, -2.288175387023354E+08, -1.037731847817659E+08,
2459587.500000000, A.D. 2022-Jan-08 00:00:00.0000, 1.385773049236845E+08, -2.216857320387590E+08, -1.030276318638651E+08,
2459594.500000000, A.D. 2022-Jan-15 00:00:00.0000, 1.490960822480970E+08, -2.140690300581228E+08, -1.020566926571333E+08,
2459601.500000000, A.D. 2022-Jan-22 00:00:00.0000, 1.592856907422487E+08, -2.059796872215564E+08, -1.008603887209651E+08,
2459608.500000000, A.D. 2022-Jan-29 00:00:00.0000, 1.691202638535070E+08, -1.974312009945423E+08, -9.943922419018158E+07,
2459615.500000000, A.D. 2022-Feb-05 00:00:00.0000, 1.785742053617853E+08, -1.884383321406817E+08, -9.779420377587000E+07,
2459622.500000000, A.D. 2022-Feb-12 00:00:00.0000, 1.876222597088590E+08, -1.790171232650370E+08, -9.592685079582095E+07,
2459629.500000000, A.D. 2022-Feb-19 00:00:00.0000, 1.962395877169621E+08, -1.691849127348696E+08, -9.383922474465638E+07,
2459636.500000000, A.D. 2022-Feb-26 00:00:00.0000, 2.044018463648303E+08, -1.589603441697123E+08, -9.153393814861986E+07,
2459643.500000000, A.D. 2022-Mar-05 00:00:00.0000, 2.120852727020774E+08, -1.483633715594503E+08, -8.901417255624989E+07,
2459650.500000000, A.D. 2022-Mar-12 00:00:00.0000, 2.192667719816462E+08, -1.374152594959862E+08, -8.628369345822500E+07,
2459657.500000000, A.D. 2022-Mar-19 00:00:00.0000, 2.259240098690438E+08, -1.261385778952924E+08, -8.334686389107639E+07,
2459664.500000000, A.D. 2022-Mar-26 00:00:00.0000, 2.320355084606271E+08, -1.145571906142494E+08, -8.020865646205786E+07,
2459671.500000000, A.D. 2022-Apr-02 00:00:00.0000, 2.375807458002864E+08, -1.026962374187766E+08, -7.687466352484572E+07,
2459678.500000000, A.D. 2022-Apr-09 00:00:00.0000, 2.425402586911227E+08, -9.058210870400712E+07, -7.335110523361339E+07,
2459685.500000000, A.D. 2022-Apr-16 00:00:00.0000, 2.468957485957110E+08, -7.824241173075971E+07, -6.964483515197158E+07,
2459692.500000000, A.D. 2022-Apr-23 00:00:00.0000, 2.506301887105351E+08, -6.570592675753555E+07, -6.576334291467708E+07,
2459699.500000000, A.D. 2022-Apr-30 00:00:00.0000, 2.537279295908054E+08, -5.300255483852092E+07, -6.171475365492341E+07,
2459706.500000000, A.D. 2022-May-07 00:00:00.0000, 2.561748055176787E+08, -4.016325883874449E+07, -5.750782433702543E+07,
2459713.500000000, A.D. 2022-May-14 00:00:00.0000, 2.579582420331630E+08, -2.721999427485867E+07, -5.315193658481621E+07,
2459720.500000000, A.D. 2022-May-21 00:00:00.0000, 2.590673615650804E+08, -1.420562896683002E+07, -4.865708549210166E+07,
2459727.500000000, A.D. 2022-May-28 00:00:00.0000, 2.594930855356005E+08, -1.153852315598812E+06, -4.403386421112023E+07,
2459734.500000000, A.D. 2022-Jun-04 00:00:00.0000, 2.592282320327325E+08, 1.190092549867076E+07, -3.929344416440127E+07,
2459741.500000000, A.D. 2022-Jun-11 00:00:00.0000, 2.582676079377076E+08, 2.492368427494919E+07, -3.444755072682899E+07,
2459748.500000000, A.D. 2022-Jun-18 00:00:00.0000, 2.566080942532284E+08, 3.787891423216444E+07, -2.950843425757882E+07,
2459755.500000000, A.D. 2022-Jun-25 00:00:00.0000, 2.542487233307948E+08, 5.073074563774720E+07, -2.448883641223028E+07,
2459762.500000000, A.D. 2022-Jul-02 00:00:00.0000, 2.511907467732305E+08, 6.344308693048854E+07, -1.940195173664146E+07,
2459769.500000000, A.D. 2022-Jul-09 00:00:00.0000, 2.474376930585881E+08, 7.597977073779218E+07, -1.426138462601251E+07,
2459776.500000000, A.D. 2022-Jul-16 00:00:00.0000, 2.429954135591228E+08, 8.830470794959047E+07, -9.081101705815379E+06,
2459783.500000000, A.D. 2022-Jul-23 00:00:00.0000, 2.378721136365896E+08, 1.003820488547752E+08, -3.875379657345224E+06,
2459790.500000000, A.D. 2022-Jul-30 00:00:00.0000, 2.320783679490983E+08, 1.121763467106717E+08, 1.341250932025082E+06,
2459797.500000000, A.D. 2022-Aug-06 00:00:00.0000, 2.256271227122869E+08, 1.236527229271994E+08, 6.554065055846497E+06,
2459804.500000000, A.D. 2022-Aug-13 00:00:00.0000, 2.185336833623467E+08, 1.347770350422403E+08, 1.174820598142804E+07,
2459811.500000000, A.D. 2022-Aug-20 00:00:00.0000, 2.108156855236920E+08, 1.455160453213056E+08, 1.690875074507633E+07,
2459818.500000000, A.D. 2022-Aug-27 00:00:00.0000, 2.024930490483149E+08, 1.558375875206937E+08, 2.202077781077477E+07,
2459825.500000000, A.D. 2022-Sep-03 00:00:00.0000, 1.935879153138518E+08, 1.657107299264885E+08, 2.706943623044583E+07,
2459832.500000000, A.D. 2022-Sep-10 00:00:00.0000, 1.841245680599080E+08, 1.751059329066601E+08, 3.204001562412693E+07,
2459839.500000000, A.D. 2022-Sep-17 00:00:00.0000, 1.741293382359984E+08, 1.839951992144160E+08, 3.691801626903164E+07,
2459846.500000000, A.D. 2022-Sep-24 00:00:00.0000, 1.636304936177293E+08, 1.923522152960597E+08, 4.168921856037088E+07,
2459853.500000000, A.D. 2022-Oct-01 00:00:00.0000, 1.526581143719958E+08, 2.001524819886122E+08, 4.633975108864016E+07,
2459860.500000000, A.D. 2022-Oct-08 00:00:00.0000, 1.412439561548095E+08, 2.073734336761934E+08, 5.085615661957657E+07,
2459867.500000000, A.D. 2022-Oct-15 00:00:00.0000, 1.294213011973646E+08, 2.139945458027043E+08, 5.522545546168107E+07,
2459874.500000000, A.D. 2022-Oct-22 00:00:00.0000, 1.172247967346237E+08, 2.199974279392087E+08, 5.943520561601128E+07,
2459881.500000000, A.D. 2022-Oct-29 00:00:00.0000, 1.046902849691836E+08, 2.253658989602614E+08, 6.347355867124937E+07,
2459888.500000000, A.D. 2022-Nov-05 00:00:00.0000, 9.185462851353668E+07, 2.300860464392839E+08, 6.732931094741252E+07,
2459895.500000000, A.D. 2022-Nov-12 00:00:00.0000, 7.875553123908278E+07, 2.341462711149274E+08, 7.099194970705621E+07,
2459902.500000000, A.D. 2022-Nov-19 00:00:00.0000, 6.543135573369729E+07, 2.375373153165620E+08, 7.445169404372756E+07,
2459909.500000000, A.D. 2022-Nov-26 00:00:00.0000, 5.192093955403441E+07, 2.402522750420342E+08, 7.769953010370648E+07,
2459916.500000000, A.D. 2022-Dec-03 00:00:00.0000, 3.826341232296508E+07, 2.422865959995847E+08, 8.072724042662437E+07,
2459923.500000000, A.D. 2022-Dec-10 00:00:00.0000, 2.449801552372674E+07, 2.436380541745289E+08, 8.352742729186611E+07,
2459930.500000000, A.D. 2022-Dec-17 00:00:00.0000, 1.066392670854085E+07, 2.443067216376721E+08, 8.609353004181345E+07,
2459937.500000000, A.D. 2022-Dec-24 00:00:00.0000, -3.199910219205596E+06, 2.442949184489281E+08, 8.841983642604730E+07,
2459944.500000000, A.D. 2022-Dec-31 00:00:00.0000, -1.705494690942894E+07, 2.436071518341931E+08, 9.050148808486590E+07,
2459951.500000000, A.D. 2023-Jan-07 00:00:00.0000, -3.086318333507878E+07, 2.422500447942970E+08, 9.233448046414828E+07,
2459958.500000000, A.D. 2023-Jan-14 00:00:00.0000, -4.458731237631119E+07, 2.402322559361374E+08, 9.391565768212922E+07,
2459965.500000000, A.D. 2023-Jan-21 00:00:00.0000, -5.819085602658129E+07, 2.375643886821182E+08, 9.524270248922373E+07,
2459972.500000000, A.D. 2023-Jan-28 00:00:00.0000, -7.163828893793468E+07, 2.342588910109571E+08, 9.631412135238643E+07,
2459979.500000000, A.D. 2023-Feb-04 00:00:00.0000, -8.489514908587624E+07, 2.303299501486752E+08, 9.712922537273288E+07,
2459986.500000000, A.D. 2023-Feb-11 00:00:00.0000, -9.792813707998598E+07, 2.257933833732426E+08, 9.768810763512513E+07,
2459993.500000000, A.D. 2023-Feb-18 00:00:00.0000, -1.107052040968730E+08, 2.206665254073669E+08, 9.799161737964684E+07,
2460000.500000000, A.D. 2023-Feb-25 00:00:00.0000, -1.231956282513476E+08, 2.149681134768706E+08, 9.804133141538453E+07,
2460007.500000000, A.D. 2023-Mar-04 00:00:00.0000, -1.353700795254633E+08, 2.087181712175503E+08, 9.783952322351044E+07,
2460014.500000000, A.D. 2023-Mar-11 00:00:00.0000, -1.472006735739779E+08, 2.019378925053218E+08, 9.738913019076592E+07,
2460021.500000000, A.D. 2023-Mar-18 00:00:00.0000, -1.586610148134255E+08, 1.946495261352334E+08, 9.669371939143759E+07,
2460028.500000000, A.D. 2023-Mar-25 00:00:00.0000, -1.697262291342185E+08, 1.868762621720783E+08, 9.575745229959738E+07,
2460035.500000000, A.D. 2023-Apr-01 00:00:00.0000, -1.803729864246036E+08, 1.786421211278508E+08, 9.458504880311601E+07,
2460042.500000000, A.D. 2023-Apr-08 00:00:00.0000, -1.905795141912490E+08, 1.699718478461864E+08, 9.318175102705711E+07,
2460049.500000000, A.D. 2023-Apr-15 00:00:00.0000, -2.003256053237541E+08, 1.608908095471590E+08, 9.155328741542894E+07,
2460056.500000000, A.D. 2023-Apr-22 00:00:00.0000, -2.095926189078536E+08, 1.514248954477618E+08, 8.970583694091070E+07,
2460063.500000000, A.D. 2023-Apr-29 00:00:00.0000, -2.183634720531269E+08, 1.416004205576482E+08, 8.764599360296865E+07,
2460070.500000000, A.D. 2023-May-06 00:00:00.0000, -2.266226252138243E+08, 1.314440356734203E+08, 8.538073171762975E+07,
2460077.500000000, A.D. 2023-May-13 00:00:00.0000, -2.343560626921544E+08, 1.209826428438632E+08, 8.291737219099835E+07,
2460084.500000000, A.D. 2023-May-20 00:00:00.0000, -2.415512687813056E+08, 1.102433158978283E+08, 8.026354986743146E+07,
2460091.500000000, A.D. 2023-May-27 00:00:00.0000, -2.481972000289481E+08, 9.925322602890292E+07, 7.742718207076286E+07,
2460098.500000000, A.D. 2023-Jun-03 00:00:00.0000, -2.542842542031918E+08, 8.803957244701505E+07, 7.441643845016095E+07,
2460105.500000000, A.D. 2023-Jun-10 00:00:00.0000, -2.598042365278885E+08, 7.662951802303827E+07, 7.123971220638372E+07,
2460112.500000000, A.D. 2023-Jun-17 00:00:00.0000, -2.647503236398588E+08, 6.505012975593821E+07, 6.790559273112980E+07,
2460119.500000000, A.D. 2023-Jun-24 00:00:00.0000, -2.691170254449413E+08, 5.332832396256861E+07, 6.442283965647148E+07,
2460126.500000000, A.D. 2023-Jul-01 00:00:00.0000, -2.729001450739338E+08, 4.149081682766455E+07, 6.080035836361503E+07,
2460133.500000000, A.D. 2023-Jul-08 00:00:00.0000, -2.760967390266109E+08, 2.956408091882413E+07, 5.704717716343378E+07,
2460140.500000000, A.D. 2023-Jul-15 00:00:00.0000, -2.787050791624964E+08, 1.757430460180419E+07, 5.317242601689219E+07,
2460147.500000000, A.D. 2023-Jul-22 00:00:00.0000, -2.807246133619817E+08, 5.547353083058715E+06, 4.918531635970660E+07,
$$EOE